{
  "norad_id": 59657,
  "name": "STARLINK-31904",
  "history": [
    {
      "epoch": "2026-03-28T20:33:00.195264Z",
      "apogee_km": 483.85011451684386,
      "perigee_km": 482.22127211944917,
      "latitude_deg": 2.6213666454254608e-05,
      "longitude_deg": 159.10241770584105,
      "height_km": 482.8238837262995,
      "semi_major_axis_km": 6861.172693318146,
      "eccentricity": 0.0001187,
      "inclination_deg": 43.0016,
      "raan_deg": 293.6239,
      "arg_perigee_deg": 269.1913,
      "mean_anomaly_deg": 90.8803,
      "mean_motion_rev_day": 15.27584476
    },
    {
      "epoch": "2026-03-29T21:39:31.836384Z",
      "apogee_km": 483.80051363845087,
      "perigee_km": 482.35554175361904,
      "latitude_deg": -2.280259236448743e-06,
      "longitude_deg": 135.53186839196385,
      "height_km": 482.8789382399696,
      "semi_major_axis_km": 6861.215027696035,
      "eccentricity": 0.0001053,
      "inclination_deg": 43.0021,
      "raan_deg": 287.7164,
      "arg_perigee_deg": 268.0747,
      "mean_anomaly_deg": 91.9984,
      "mean_motion_rev_day": 15.27570338
    },
    {
      "epoch": "2026-03-30T05:30:19.479168Z",
      "apogee_km": 483.73153403656124,
      "perigee_km": 482.5913234636728,
      "latitude_deg": 3.009471030639258e-05,
      "longitude_deg": 15.667044553487182,
      "height_km": 482.90815255414543,
      "semi_major_axis_km": 6861.298428750117,
      "eccentricity": 8.309e-05,
      "inclination_deg": 43.0043,
      "raan_deg": 285.8723,
      "arg_perigee_deg": 273.0131,
      "mean_anomaly_deg": 87.0626,
      "mean_motion_rev_day": 15.27542486
    },
    {
      "epoch": "2026-03-30T13:21:05.311872Z",
      "apogee_km": 483.74565601127233,
      "perigee_km": 482.35585381963665,
      "latitude_deg": 6.489427367145125e-06,
      "longitude_deg": -104.19387626317476,
      "height_km": 482.87849385877513,
      "semi_major_axis_km": 6861.187754915454,
      "eccentricity": 0.00010128,
      "inclination_deg": 43.0028,
      "raan_deg": 284.0246,
      "arg_perigee_deg": 265.7857,
      "mean_anomaly_deg": 94.2879,
      "mean_motion_rev_day": 15.27579446
    },
    {
      "epoch": "2026-03-30T22:46:01.510176Z",
      "apogee_km": 484.26890213397655,
      "perigee_km": 481.8356499691181,
      "latitude_deg": 2.392214950634157e-07,
      "longitude_deg": 111.96857253667535,
      "height_km": 482.7395432684198,
      "semi_major_axis_km": 6861.1892760515475,
      "eccentricity": 0.00017732,
      "inclination_deg": 43.0034,
      "raan_deg": 281.8079,
      "arg_perigee_deg": 274.2481,
      "mean_anomaly_deg": 85.8168,
      "mean_motion_rev_day": 15.27578938
    },
    {
      "epoch": "2026-03-31T19:10:05.898432Z",
      "apogee_km": 483.9093744909869,
      "perigee_km": 482.34363415929965,
      "latitude_deg": 6.979411657364292e-06,
      "longitude_deg": 160.31184821414814,
      "height_km": 482.8030189013701,
      "semi_major_axis_km": 6861.263504325143,
      "eccentricity": 0.0001141,
      "inclination_deg": 43.0006,
      "raan_deg": 277.0073,
      "arg_perigee_deg": 277.3419,
      "mean_anomaly_deg": 82.7303,
      "mean_motion_rev_day": 15.27554149
    },
    {
      "epoch": "2026-04-01T20:16:34.037760Z",
      "apogee_km": 483.9792609853721,
      "perigee_km": 482.06362554801126,
      "latitude_deg": 1.3038953245917676e-05,
      "longitude_deg": 136.75506741718547,
      "height_km": 482.8394590788297,
      "semi_major_axis_km": 6861.158443266691,
      "eccentricity": 0.0001396,
      "inclination_deg": 43.0016,
      "raan_deg": 271.0989,
      "arg_perigee_deg": 267.5378,
      "mean_anomaly_deg": 92.5314,
      "mean_motion_rev_day": 15.27589235
    }
  ]
}